STARLINK-36215          
1 67100U 25298AB  25361.50002315 -.01675487  00000+0 -14315-1 0  9997
2 67100  69.9992 207.9590 0003331 271.3705 239.5554 15.72186459  3359
STARLINK-36200          
1 67101U 25298AC  25361.50002315 -.01675435  00000+0 -14318-1 0  9994
2 67101  69.9996 207.9640 0003342 269.0078 238.1796 15.72181581  3353
STARLINK-36255          
1 67102U 25299A   25361.50002315 -.01908446  00000+0 -14320-1 0  9990
2 67102  42.9991 226.2632 0001877 266.5889 155.4730 15.74994512  3186
STARLINK-36256          
1 67103U 25299B   25361.50002315 -.01922807  00000+0 -14427-1 0  9996
2 67103  42.9989 226.2600 0001811 268.3920 155.1434 15.75023520  3184
STARLINK-36258          
1 67104U 25299C   25361.50002315 -.01909479  00000+0 -14305-1 0  9992
2 67104  42.9991 226.2555 0001842 269.0267 156.1011 15.75032367  3184
STARLINK-36261          
1 67105U 25299D   25361.50002315 -.01916801  00000+0 -14351-1 0  9991
2 67105  42.9990 226.2524 0001865 265.6968 160.8519 15.75059560  3184
STARLINK-36259          
1 67106U 25299E   25361.50002315 -.01910181  00000+0 -14286-1 0  9994
2 67106  42.9989 226.2435 0001644 261.1949 168.7819 15.75075129  3188
STARLINK-36196          
1 67107U 25299F   25361.50002315 -.01922176  00000+0 -14389-1 0  9996
2 67107  42.9990 226.2483 0001780 265.5926 162.6109 15.75074898  3185
STARLINK-36208          
1 67108U 25299G   25361.50002315 -.01907967  00000+0 -14263-1 0  9999
2 67108  42.9990 226.2389 0001588 260.8248 170.9170 15.75081512  3183
STARLINK-35764          
1 67109U 25299H   25361.50002315 -.01907350  00000+0 -14256-1 0  9998
2 67109  42.9992 226.2351 0001781 268.8580 164.7515 15.75082360  3071
STARLINK-35781          
1 67110U 25299J   25361.50002315 -.01917885  00000+0 -14337-1 0  9994
2 67110  42.9990 226.2254 0001676 263.9403 173.3071 15.75098919  3133
STARLINK-35875          
1 67111U 25299K   25361.50002315 -.01918965  00000+0 -14351-1 0  9991
2 67111  42.9989 226.2298 0001644 262.5828 172.8851 15.75092534  3071
