CCSDS_OMM_VERS = 2.0
CREATION_DATE  = 
ORIGINATOR     = 

OBJECT_NAME    = STARLINK-36215
OBJECT_ID      = 2025-298AB
CENTER_NAME    = EARTH
REF_FRAME      = TEME
TIME_SYSTEM    = UTC
MEAN_ELEMENT_THEORY = SGP/SGP4

EPOCH          = 2025-12-27T12:00:02.000160
MEAN_MOTION    = 15.72186459
ECCENTRICITY   = .0003331
INCLINATION    = 69.9992
RA_OF_ASC_NODE = 207.9590
ARG_OF_PERICENTER = 271.3705
MEAN_ANOMALY   = 239.5554

EPHEMERIS_TYPE = 0
CLASSIFICATION_TYPE = U
NORAD_CAT_ID   = 67100
ELEMENT_SET_NO = 999
REV_AT_EPOCH   = 335
BSTAR          = -.14315E-1
MEAN_MOTION_DOT = -.1675487E-1
MEAN_MOTION_DDOT = 0

CCSDS_OMM_VERS = 2.0
CREATION_DATE  = 
ORIGINATOR     = 

OBJECT_NAME    = STARLINK-36200
OBJECT_ID      = 2025-298AC
CENTER_NAME    = EARTH
REF_FRAME      = TEME
TIME_SYSTEM    = UTC
MEAN_ELEMENT_THEORY = SGP/SGP4

EPOCH          = 2025-12-27T12:00:02.000160
MEAN_MOTION    = 15.72181581
ECCENTRICITY   = .0003342
INCLINATION    = 69.9996
RA_OF_ASC_NODE = 207.9640
ARG_OF_PERICENTER = 269.0078
MEAN_ANOMALY   = 238.1796

EPHEMERIS_TYPE = 0
CLASSIFICATION_TYPE = U
NORAD_CAT_ID   = 67101
ELEMENT_SET_NO = 999
REV_AT_EPOCH   = 335
BSTAR          = -.14318E-1
MEAN_MOTION_DOT = -.1675435E-1
MEAN_MOTION_DDOT = 0

CCSDS_OMM_VERS = 2.0
CREATION_DATE  = 
ORIGINATOR     = 

OBJECT_NAME    = STARLINK-36255
OBJECT_ID      = 2025-299A
CENTER_NAME    = EARTH
REF_FRAME      = TEME
TIME_SYSTEM    = UTC
MEAN_ELEMENT_THEORY = SGP/SGP4

EPOCH          = 2025-12-27T12:00:02.000160
MEAN_MOTION    = 15.74994512
ECCENTRICITY   = .0001877
INCLINATION    = 42.9991
RA_OF_ASC_NODE = 226.2632
ARG_OF_PERICENTER = 266.5889
MEAN_ANOMALY   = 155.4730

EPHEMERIS_TYPE = 0
CLASSIFICATION_TYPE = U
NORAD_CAT_ID   = 67102
ELEMENT_SET_NO = 999
REV_AT_EPOCH   = 318
BSTAR          = -.1432E-1
MEAN_MOTION_DOT = -.1908446E-1
MEAN_MOTION_DDOT = 0

CCSDS_OMM_VERS = 2.0
CREATION_DATE  = 
ORIGINATOR     = 

OBJECT_NAME    = STARLINK-36256
OBJECT_ID      = 2025-299B
CENTER_NAME    = EARTH
REF_FRAME      = TEME
TIME_SYSTEM    = UTC
MEAN_ELEMENT_THEORY = SGP/SGP4

EPOCH          = 2025-12-27T12:00:02.000160
MEAN_MOTION    = 15.75023520
ECCENTRICITY   = .0001811
INCLINATION    = 42.9989
RA_OF_ASC_NODE = 226.2600
ARG_OF_PERICENTER = 268.3920
MEAN_ANOMALY   = 155.1434

EPHEMERIS_TYPE = 0
CLASSIFICATION_TYPE = U
NORAD_CAT_ID   = 67103
ELEMENT_SET_NO = 999
REV_AT_EPOCH   = 318
BSTAR          = -.14427E-1
MEAN_MOTION_DOT = -.1922807E-1
MEAN_MOTION_DDOT = 0

CCSDS_OMM_VERS = 2.0
CREATION_DATE  = 
ORIGINATOR     = 

OBJECT_NAME    = STARLINK-36258
OBJECT_ID      = 2025-299C
CENTER_NAME    = EARTH
REF_FRAME      = TEME
TIME_SYSTEM    = UTC
MEAN_ELEMENT_THEORY = SGP/SGP4

EPOCH          = 2025-12-27T12:00:02.000160
MEAN_MOTION    = 15.75032367
ECCENTRICITY   = .0001842
INCLINATION    = 42.9991
RA_OF_ASC_NODE = 226.2555
ARG_OF_PERICENTER = 269.0267
MEAN_ANOMALY   = 156.1011

EPHEMERIS_TYPE = 0
CLASSIFICATION_TYPE = U
NORAD_CAT_ID   = 67104
ELEMENT_SET_NO = 999
REV_AT_EPOCH   = 318
BSTAR          = -.14305E-1
MEAN_MOTION_DOT = -.1909479E-1
MEAN_MOTION_DDOT = 0

CCSDS_OMM_VERS = 2.0
CREATION_DATE  = 
ORIGINATOR     = 

OBJECT_NAME    = STARLINK-36261
OBJECT_ID      = 2025-299D
CENTER_NAME    = EARTH
REF_FRAME      = TEME
TIME_SYSTEM    = UTC
MEAN_ELEMENT_THEORY = SGP/SGP4

EPOCH          = 2025-12-27T12:00:02.000160
MEAN_MOTION    = 15.75059560
ECCENTRICITY   = .0001865
INCLINATION    = 42.9990
RA_OF_ASC_NODE = 226.2524
ARG_OF_PERICENTER = 265.6968
MEAN_ANOMALY   = 160.8519

EPHEMERIS_TYPE = 0
CLASSIFICATION_TYPE = U
NORAD_CAT_ID   = 67105
ELEMENT_SET_NO = 999
REV_AT_EPOCH   = 318
BSTAR          = -.14351E-1
MEAN_MOTION_DOT = -.1916801E-1
MEAN_MOTION_DDOT = 0

CCSDS_OMM_VERS = 2.0
CREATION_DATE  = 
ORIGINATOR     = 

OBJECT_NAME    = STARLINK-36259
OBJECT_ID      = 2025-299E
CENTER_NAME    = EARTH
REF_FRAME      = TEME
TIME_SYSTEM    = UTC
MEAN_ELEMENT_THEORY = SGP/SGP4

EPOCH          = 2025-12-27T12:00:02.000160
MEAN_MOTION    = 15.75075129
ECCENTRICITY   = .0001644
INCLINATION    = 42.9989
RA_OF_ASC_NODE = 226.2435
ARG_OF_PERICENTER = 261.1949
MEAN_ANOMALY   = 168.7819

EPHEMERIS_TYPE = 0
CLASSIFICATION_TYPE = U
NORAD_CAT_ID   = 67106
ELEMENT_SET_NO = 999
REV_AT_EPOCH   = 318
BSTAR          = -.14286E-1
MEAN_MOTION_DOT = -.1910181E-1
MEAN_MOTION_DDOT = 0

CCSDS_OMM_VERS = 2.0
CREATION_DATE  = 
ORIGINATOR     = 

OBJECT_NAME    = STARLINK-36196
OBJECT_ID      = 2025-299F
CENTER_NAME    = EARTH
REF_FRAME      = TEME
TIME_SYSTEM    = UTC
MEAN_ELEMENT_THEORY = SGP/SGP4

EPOCH          = 2025-12-27T12:00:02.000160
MEAN_MOTION    = 15.75074898
ECCENTRICITY   = .000178
INCLINATION    = 42.9990
RA_OF_ASC_NODE = 226.2483
ARG_OF_PERICENTER = 265.5926
MEAN_ANOMALY   = 162.6109

EPHEMERIS_TYPE = 0
CLASSIFICATION_TYPE = U
NORAD_CAT_ID   = 67107
ELEMENT_SET_NO = 999
REV_AT_EPOCH   = 318
BSTAR          = -.14389E-1
MEAN_MOTION_DOT = -.1922176E-1
MEAN_MOTION_DDOT = 0

CCSDS_OMM_VERS = 2.0
CREATION_DATE  = 
ORIGINATOR     = 

OBJECT_NAME    = STARLINK-36208
OBJECT_ID      = 2025-299G
CENTER_NAME    = EARTH
REF_FRAME      = TEME
TIME_SYSTEM    = UTC
MEAN_ELEMENT_THEORY = SGP/SGP4

EPOCH          = 2025-12-27T12:00:02.000160
MEAN_MOTION    = 15.75081512
ECCENTRICITY   = .0001588
INCLINATION    = 42.9990
RA_OF_ASC_NODE = 226.2389
ARG_OF_PERICENTER = 260.8248
MEAN_ANOMALY   = 170.9170

EPHEMERIS_TYPE = 0
CLASSIFICATION_TYPE = U
NORAD_CAT_ID   = 67108
ELEMENT_SET_NO = 999
REV_AT_EPOCH   = 318
BSTAR          = -.14263E-1
MEAN_MOTION_DOT = -.1907967E-1
MEAN_MOTION_DDOT = 0

CCSDS_OMM_VERS = 2.0
CREATION_DATE  = 
ORIGINATOR     = 

OBJECT_NAME    = STARLINK-35764
OBJECT_ID      = 2025-299H
CENTER_NAME    = EARTH
REF_FRAME      = TEME
TIME_SYSTEM    = UTC
MEAN_ELEMENT_THEORY = SGP/SGP4

EPOCH          = 2025-12-27T12:00:02.000160
MEAN_MOTION    = 15.75082360
ECCENTRICITY   = .0001781
INCLINATION    = 42.9992
RA_OF_ASC_NODE = 226.2351
ARG_OF_PERICENTER = 268.8580
MEAN_ANOMALY   = 164.7515

EPHEMERIS_TYPE = 0
CLASSIFICATION_TYPE = U
NORAD_CAT_ID   = 67109
ELEMENT_SET_NO = 999
REV_AT_EPOCH   = 307
BSTAR          = -.14256E-1
MEAN_MOTION_DOT = -.190735E-1
MEAN_MOTION_DDOT = 0

CCSDS_OMM_VERS = 2.0
CREATION_DATE  = 
ORIGINATOR     = 

OBJECT_NAME    = STARLINK-35781
OBJECT_ID      = 2025-299J
CENTER_NAME    = EARTH
REF_FRAME      = TEME
TIME_SYSTEM    = UTC
MEAN_ELEMENT_THEORY = SGP/SGP4

EPOCH          = 2025-12-27T12:00:02.000160
MEAN_MOTION    = 15.75098919
ECCENTRICITY   = .0001676
INCLINATION    = 42.9990
RA_OF_ASC_NODE = 226.2254
ARG_OF_PERICENTER = 263.9403
MEAN_ANOMALY   = 173.3071

EPHEMERIS_TYPE = 0
CLASSIFICATION_TYPE = U
NORAD_CAT_ID   = 67110
ELEMENT_SET_NO = 999
REV_AT_EPOCH   = 313
BSTAR          = -.14337E-1
MEAN_MOTION_DOT = -.1917885E-1
MEAN_MOTION_DDOT = 0

CCSDS_OMM_VERS = 2.0
CREATION_DATE  = 
ORIGINATOR     = 

OBJECT_NAME    = STARLINK-35875
OBJECT_ID      = 2025-299K
CENTER_NAME    = EARTH
REF_FRAME      = TEME
TIME_SYSTEM    = UTC
MEAN_ELEMENT_THEORY = SGP/SGP4

EPOCH          = 2025-12-27T12:00:02.000160
MEAN_MOTION    = 15.75092534
ECCENTRICITY   = .0001644
INCLINATION    = 42.9989
RA_OF_ASC_NODE = 226.2298
ARG_OF_PERICENTER = 262.5828
MEAN_ANOMALY   = 172.8851

EPHEMERIS_TYPE = 0
CLASSIFICATION_TYPE = U
NORAD_CAT_ID   = 67111
ELEMENT_SET_NO = 999
REV_AT_EPOCH   = 307
BSTAR          = -.14351E-1
MEAN_MOTION_DOT = -.1918965E-1
MEAN_MOTION_DDOT = 0

